IRIDIUM 921 [-]         
1 24873U 97034E   23293.33364811  .00024664  00000+0  93842-3 0  9995
2 24873  86.3888  45.9597 0006808  89.1218 271.0809 15.26617674438307
IRIDIUM 26 [-]          
1 24903U 97043A   23293.26474806  .00000697  00000+0  23318-3 0  9998
2 24903  86.4014   4.8397 0001996  89.6148 270.5277 14.36048024369757
IRIDIUM 22 [-]          
1 24907U 97043E   23293.27495113  .00000699  00000+0  23897-3 0  9991
2 24907  86.4020   7.8792 0002210  92.0617 268.0833 14.34955491369853
DUMMY MASS 1 [-]        
1 24925U 97048A   23293.86836618  .00000947  00000+0  10543-3 0  9990
2 24925  86.3355  54.9714 0008773 120.8730 239.3358 14.85884836415211
DUMMY MASS 2 [-]        
1 24926U 97048B   23293.86615994  .00000951  00000+0  10654-3 0  9991
2 24926  86.3353  56.4738 0009322 130.3707 229.8332 14.85645881415002
IRIDIUM 29 [-]          
1 24944U 97051A   23293.84210064  .00000601  00000+0  20260-3 0  9998
2 24944  86.3997  37.6082 0002354  90.6437 269.5029 14.35412659366408
IRIDIUM 33 [-]          
1 24946U 97051C   23293.37170709  .00000641  00000+0  22210-3 0  9990
2 24946  86.3914  37.0804 0005919 249.0631 110.9931 14.34150592365898
IRIDIUM 28 [-]          
1 24948U 97051E   23293.37724706  .00000885  00000+0  29596-3 0  9998
2 24948  86.4006  35.6676 0001710  93.0274 267.1119 14.36349652366858
